0 SL-8 DEB
1 08756U 74071C   13281.55467829  .00001585  00000-0  27488-3 0  1641
2 08756 074.0560 352.5299 0003826 194.0793 231.0505 14.69137312204815
0 SL-8 DEB
1 08756U 74071C   13282.57666905  .00001564  00000-0  27116-3 0  1656
2 08756 074.0559 350.5536 0003765 191.9072 236.1803 14.69147470204962
0 SL-8 DEB
1 08756U 74071C   13283.88031369  .00002046  00000-0  35307-3 0  1669
2 08756 074.0557 348.0324 0003688 188.7167 291.3929 14.69151901205158
0 SL-8 DEB
1 08756U 74071C   13286.53486735  .00002110  00000-0  36380-3 0  1681
2 08756 074.0567 342.9011 0003653 183.2163 290.8947 14.69160118205540
0 SL-8 DEB
1 08756U 74071C   13287.82972284  .00002920  00000-0  50130-3 0  1692
2 08756 074.0564 340.3971 0003579 180.7147 299.0245 14.69166609205739
0 SL-8 DEB
1 08756U 74071C   13289.10596352  .00003176  00000-0  54460-3 0  1709
2 08756 074.0559 337.9291 0003508 178.1591 208.8340 14.69175216205925
0 SL-8 DEB
1 08756U 74071C   13290.47417973  .00002871  00000-0  49288-3 0  1716
2 08756 074.0554 335.2829 0003444 174.5856 245.9553 14.69182296206128
0 SL-8 DEB
1 08756U 74071C   13292.17547485  .00002687  00000-0  46159-3 0  1727
2 08756 074.0550 331.9921 0003355 170.9655 244.1107 14.69189163206371
0 SL-8 DEB
1 08756U 74071C   13293.19807549  .00003065  00000-0  52553-3 0  1737
2 08756 074.0550 330.0141 0003287 168.7998 252.6627 14.69193738206525
0 SL-8 DEB
1 08756U 74071C   13294.50368110  .00003343  00000-0  57267-3 0  1746
2 08756 074.0550 327.4886 0003226 165.3659 318.7264 14.69200119206715
0 SL-8 DEB
1 08756U 74071C   13295.53072593  .00003458  00000-0  59203-3 0  1757
2 08756 074.0551 325.5019 0003176 162.9915 351.0220 14.69205878206860
